NORAD_CAT_ID,OBJECT_NAME,OBJECT_TYPE,EPOCH,MEAN_MOTION,ECCENTRICITY,INCLINATION,RA_OF_ASC_NODE,ARG_OF_PERICENTER,MEAN_ANOMALY,BSTAR,MEAN_MOTION_DOT,MEAN_MOTION_DDOT,TLE_LINE0,TLE_LINE1,TLE_LINE2,SEMIMAJOR_AXIS,PERIOD,APOGEE,PERIGEE,DECAYED
50181.0,STARLINK-3285,PAYLOAD,2024-05-18 06:10:09,15.08826622,0.0001978,53.2151,333.931,89.8682,270.2537,0.00091916,0.00014365,0.0,0 STARLINK-3285,1 50181U 21125AB  24139.25705473  .00014365  00000-0  91916-3 0  9996,2 50181  53.2151 333.9310 0001978  89.8682 270.2537 15.08826622136907,6917.921,95.438,541.155,538.418,0.0
50181.0,STARLINK-3285,PAYLOAD,2024-05-18 20:28:36,15.0887024,0.0001546,53.2165,331.2521,78.6746,281.442,0.0013386,0.00021098,0.0,0 STARLINK-3285,1 50181U 21125AB  24139.85320257  .00021098  00000-0  13386-2 0  9990,2 50181  53.2165 331.2521 0001546  78.6746 281.4420 15.08870240136501,6917.788,95.436,540.722,538.583,0.0
50181.0,STARLINK-3285,PAYLOAD,2024-05-19 12:22:29,15.0882864,0.0001714,53.2175,328.2792,90.4014,269.7174,-0.00011598,-2.133e-05,0.0,0 STARLINK-3285,1 50181U 21125AB  24140.51561605 -.00002133  00000-0 -11598-3 0  9994,2 50181  53.2175 328.2792 0001714  90.4014 269.7174 15.08828640137092,6917.915,95.438,540.966,538.594,0.0
50181.0,STARLINK-3285,PAYLOAD,2024-05-19 21:54:48,15.08822481,0.000182,53.2183,326.4945,83.4612,276.6587,-7.4267e-05,-1.469e-05,0.0,0 STARLINK-3285,1 50181U 21125AB  24140.91306345 -.00001469  00000-0 -74267-4 0  9990,2 50181  53.2183 326.4945 0001820  83.4612 276.6587 15.08822481137154,6917.934,95.439,541.058,538.54,0.0
50181.0,STARLINK-3285,PAYLOAD,2024-05-20 18:34:49,15.08861158,0.0001759,53.216,322.6293,65.6389,294.4787,0.0012475,0.00019633,0.0,0 STARLINK-3285,1 50181U 21125AB  24141.77418006  .00019633  00000-0  12475-2 0  9994,2 50181  53.2160 322.6293 0001759  65.6389 294.4787 15.08861158136790,6917.816,95.436,540.898,538.464,0.0
50181.0,STARLINK-3285,PAYLOAD,2024-05-21 00:56:20,15.0889499,0.0001766,53.2172,321.4407,60.8768,299.2401,0.0018959,0.0003006,0.0,0 STARLINK-3285,1 50181U 21125AB  24142.03913027  .00030060  00000-0  18959-2 0  9997,2 50181  53.2172 321.4407 0001766  60.8768 299.2401 15.08894990136834,6917.712,95.434,540.799,538.356,0.0
50181.0,STARLINK-3285,PAYLOAD,2024-05-21 16:50:11,15.08846429,0.0001125,53.2162,318.4665,71.2533,288.8581,-0.00028722,-4.857e-05,0.0,0 STARLINK-3285,1 50181U 21125AB  24142.70151855 -.00004857  00000-0 -28722-3 0  9991,2 50181  53.2162 318.4665 0001125  71.2533 288.8581 15.08846429136938,6917.861,95.437,540.504,538.947,0.0
50181.0,STARLINK-3285,PAYLOAD,2024-05-21 21:36:20,15.08837181,0.0001273,53.2168,317.5759,77.3632,282.7502,0.00085728,0.00013381,0.0,0 STARLINK-3285,1 50181U 21125AB  24142.90024143  .00013381  00000-0  85728-3 0  9991,2 50181  53.2168 317.5759 0001273  77.3632 282.7502 15.08837181137458,6917.889,95.438,540.635,538.873,0.0
50181.0,STARLINK-3285,PAYLOAD,2024-05-22 21:27:09,15.08834044,0.000133,53.2166,313.113,93.271,266.8434,0.00088506,0.00013823,0.0,0 STARLINK-3285,1 50181U 21125AB  24143.89385460  .00013823  00000-0  88506-3 0  9990,2 50181  53.2166 313.1130 0001330  93.2710 266.8434 15.08834044137608,6917.899,95.438,540.684,538.844,0.0
50181.0,STARLINK-3285,PAYLOAD,2024-05-23 14:56:24,15.08831241,0.0002159,53.2157,309.8367,120.9509,239.1695,0.00034244,5.165e-05,0.0,0 STARLINK-3285,1 50181U 21125AB  24144.62250154  .00005165  00000-0  34244-3 0  9993,2 50181  53.2157 309.8367 0002159 120.9509 239.1695 15.08831241137716,6917.907,95.438,541.266,538.279,0.0
50181.0,STARLINK-3285,PAYLOAD,2024-05-23 16:31:47,15.08832094,0.0002107,53.2162,309.5397,117.2475,242.8732,0.00033339,5.021e-05,0.0,0 STARLINK-3285,1 50181U 21125AB  24144.68874190  .00005021  00000-0  33339-3 0  9996,2 50181  53.2162 309.5397 0002107 117.2475 242.8732 15.08832094137233,6917.905,95.438,541.227,538.312,0.0
50181.0,STARLINK-3285,PAYLOAD,2024-05-24 14:47:11,15.08850134,0.0001475,53.2163,305.381,97.4661,262.6499,0.00060857,9.413e-05,0.0,0 STARLINK-3285,1 50181U 21125AB  24145.61610090  .00009413  00000-0  60857-3 0  9991,2 50181  53.2163 305.3810 0001475  97.4661 262.6499 15.08850134137865,6917.849,95.437,540.735,538.694,0.0
50181.0,STARLINK-3285,PAYLOAD,2024-05-24 21:08:42,15.08869376,0.0001147,53.2146,304.1926,111.9558,248.1557,0.00093631,0.00014657,0.0,0 STARLINK-3285,1 50181U 21125AB  24145.88105322  .00014657  00000-0  93631-3 0  9999,2 50181  53.2146 304.1926 0001147 111.9558 248.1557 15.08869376137417,6917.791,95.436,540.449,538.862,0.0
50181.0,STARLINK-3285,PAYLOAD,2024-05-25 14:37:57,15.08847693,0.0002506,53.2135,300.9146,139.8443,220.2734,-0.00041834,-6.942e-05,0.0,0 STARLINK-3285,1 50181U 21125AB  24146.60969475 -.00006942  00000-0 -41834-3 0  9995,2 50181  53.2135 300.9146 0002506 139.8443 220.2734 15.08847693138018,6917.857,95.437,541.455,537.988,0.0
50181.0,STARLINK-3285,PAYLOAD,2024-05-25 19:24:07,15.08843733,0.0001338,53.2169,300.0278,88.4689,271.6457,0.00034522,5.211e-05,0.0,0 STARLINK-3285,1 50181U 21125AB  24146.80842090  .00005211  00000-0  34522-3 0  9992,2 50181  53.2169 300.0278 0001338  88.4689 271.6457 15.08843733137556,6917.869,95.437,540.66,538.808,0.0
50181.0,STARLINK-3285,PAYLOAD,2024-05-26 14:28:45,15.08839946,0.0001404,53.2169,296.4633,96.1995,263.9157,0.00024441,3.604e-05,0.0,0 STARLINK-3285,1 50181U 21125AB  24147.60330373  .00003604  00000-0  24441-3 0  9990,2 50181  53.2169 296.4633 0001404  96.1995 263.9157 15.08839946138169,6917.881,95.438,540.717,538.774,0.0
50181.0,STARLINK-3285,PAYLOAD,2024-05-26 17:39:31,15.08846767,0.0001302,53.2157,295.8672,95.9174,264.1967,0.00047746,7.32e-05,0.0,0 STARLINK-3285,1 50181U 21125AB  24147.73578249  .00007320  00000-0  47746-3 0  9992,2 50181  53.2157 295.8672 0001302  95.9174 264.1967 15.08846767137693,6917.86,95.437,540.625,538.824,0.0
50181.0,STARLINK-3285,PAYLOAD,2024-05-27 09:33:23,15.08845516,0.0001802,53.217,292.897,68.3867,291.7317,0.00029938,4.48e-05,0.0,0 STARLINK-3285,1 50181U 21125AB  24148.39818497  .00004480  00000-0  29938-3 0  9994,2 50181  53.2170 292.8970 0001802  68.3867 291.7317 15.08845516137791,6917.864,95.437,540.975,538.482,0.0
50181.0,STARLINK-3285,PAYLOAD,2024-05-27 14:19:32,15.08844738,0.0001548,53.2167,292.0035,85.8022,274.3147,0.00019137,2.759e-05,0.0,0 STARLINK-3285,1 50181U 21125AB  24148.59690349  .00002759  00000-0  19137-3 0  9997,2 50181  53.2167 292.0035 0001548  85.8022 274.3147 15.08844738138317,6917.866,95.437,540.802,538.66,0.0
50181.0,STARLINK-3285,PAYLOAD,2024-05-27 15:54:55,15.08844287,0.0001611,53.217,291.7066,77.8817,282.2355,0.00020073,2.908e-05,0.0,0 STARLINK-3285,1 50181U 21125AB  24148.66314401  .00002908  00000-0  20073-3 0  9994,2 50181  53.2170 291.7066 0001611  77.8817 282.2355 15.08844287138324,6917.867,95.437,540.847,538.618,0.0
50181.0,STARLINK-3285,PAYLOAD,2024-05-28 12:34:56,15.08843196,0.0001409,53.2165,287.8406,90.1634,269.9519,0.00014816,2.071e-05,0.0,0 STARLINK-3285,1 50181U 21125AB  24149.52426289  .00002071  00000-0  14816-3 0  9997,2 50181  53.2165 287.8406 0001409  90.1634 269.9519 15.08843196137963,6917.871,95.437,540.71,538.761,0.0
50181.0,STARLINK-3285,PAYLOAD,2024-05-28 14:10:19,15.0884408,0.0001421,53.2167,287.5436,84.7794,275.3361,0.00014314,1.991e-05,0.0,0 STARLINK-3285,1 50181U 21125AB  24149.59050254  .00001991  00000-0  14314-3 0  9992,2 50181  53.2167 287.5436 0001421  84.7794 275.3361 15.08844080138460,6917.868,95.437,540.716,538.75,0.0
50181.0,STARLINK-3285,PAYLOAD,2024-05-28 15:45:42,15.08845168,0.0001408,53.2171,287.2465,83.6968,276.4184,0.00014392,2.004e-05,0.0,0 STARLINK-3285,1 50181U 21125AB  24149.65674205  .00002004  00000-0  14392-3 0  9999,2 50181  53.2171 287.2465 0001408  83.6968 276.4184 15.08845168138474,6917.865,95.437,540.704,538.756,0.0
50181.0,STARLINK-3285,PAYLOAD,2024-05-29 14:01:06,15.08839506,0.0001459,53.2176,283.0811,97.2157,262.9001,1.6915e-05,-1.9e-07,0.0,0 STARLINK-3285,1 50181U 21125AB  24150.58410449 -.00000019  00000-0  16915-4 0  9990,2 50181  53.2176 283.0811 0001459  97.2157 262.9001 15.08839506138618,6917.882,95.438,540.756,538.738,0.0
50181.0,STARLINK-3285,PAYLOAD,2024-05-29 18:47:15,15.08841041,0.0001498,53.2175,282.1874,99.4225,260.6936,1.8579e-05,8e-08,0.0,0 STARLINK-3285,1 50181U 21125AB  24150.78282341  .00000008  00000-0  18579-4 0  9995,2 50181  53.2175 282.1874 0001498  99.4225 260.6936 15.08841041138157,6917.877,95.437,540.779,538.706,0.0
50181.0,STARLINK-3285,PAYLOAD,2024-05-30 13:51:53,15.08851708,0.0001391,53.2162,278.6192,101.2721,258.8428,0.00018407,2.644e-05,0.0,0 STARLINK-3285,1 50181U 21125AB  24151.57769857  .00002644  00000-0  18407-3 0  9992,2 50181  53.2162 278.6192 0001391 101.2721 258.8428 15.08851708138764,6917.845,95.437,540.672,538.747,0.0
50181.0,STARLINK-3285,PAYLOAD,2024-05-31 12:07:17,15.08843574,0.0001202,53.218,274.4646,89.4042,270.7088,6.9663e-05,8.21e-06,0.0,0 STARLINK-3285,1 50181U 21125AB  24152.50506277  .00000821  00000-0  69663-4 0  9997,2 50181  53.2180 274.4646 0001202  89.4042 270.7088 15.08843574138415,6917.869,95.437,540.566,538.903,0.0
50181.0,STARLINK-3285,PAYLOAD,2024-05-31 13:42:40,15.08845066,0.0001174,53.2174,274.1644,83.1019,277.0107,4.4113e-05,4.14e-06,0.0,0 STARLINK-3285,1 50181U 21125AB  24152.57130156  .00000414  00000-0  44113-4 0  9994,2 50181  53.2174 274.1644 0001174  83.1019 277.0107 15.08845066138911,6917.865,95.437,540.542,538.918,0.0
50181.0,STARLINK-3285,PAYLOAD,2024-06-01 00:50:22,15.0883791,0.0001059,53.2168,272.0784,81.3121,278.7991,7.0026e-05,8.27e-06,0.0,0 STARLINK-3285,1 50181U 21125AB  24153.03498694  .00000827  00000-0  70026-4 0  9990,2 50181  53.2168 272.0784 0001059  81.3121 278.7991 15.08837910138493,6917.887,95.438,540.484,539.019,0.0
50181.0,STARLINK-3285,PAYLOAD,2024-06-01 13:33:28,15.08837751,0.0001281,53.2179,269.7029,100.488,259.6256,-2.4085e-05,-6.71e-06,0.0,0 STARLINK-3285,1 50181U 21125AB  24153.56491076 -.00000671  00000-0 -24085-4 0  9998,2 50181  53.2179 269.7029 0001281 100.4880 259.6256 15.08837751139061,6917.887,95.438,540.638,538.866,0.0
